{"type": "FeatureCollection", "features": [ {"type": "Feature", "properties": {"norad_id": 40118, "name": "GAOFEN-2", "group": "resource", "lat": -78.25545889081558, "lon": -172.1941556336365, "alt_km": 640.4859283759452, "timestamp": "2025-12-17T10:52:54.006091+00:00", "meta": {"OBJECT_NAME": "GAOFEN-2", "OBJECT_ID": "2014-049A", "EPOCH": "2025-12-16T23:58:24.748320", "MEAN_MOTION": 14.8061738, "ECCENTRICITY": 0.00086761, "INCLINATION": 98.0385, "RA_OF_ASC_NODE": 50.1749, "ARG_OF_PERICENTER": 101.0746, "MEAN_ANOMALY": 259.1442, "EPHEMERIS_TYPE": 0, "CLASSIFICATION_TYPE": "U", "NORAD_CAT_ID": 40118, "ELEMENT_SET_NO": 999, "REV_AT_EPOCH": 61227, "BSTAR": 0.00011149624, "MEAN_MOTION_DOT": 8.03e-06, "MEAN_MOTION_DDOT": 0}, "tle": {"line1": "1 40118U 14049A   25350.99889755  .00000803  00000+0  11150-3 0  9998", "line2": "2 40118  98.0385  50.1749 0008676 101.0746 259.1442 14.80617380612274"}}, "geometry": {"type": "Point", "coordinates": [-172.1941556336365, -78.25545889081558]}}, {"type": "Feature", "properties": {"norad_id": 40143, "name": "YAOGAN-21", "group": "resource", "lat": -54.03712733584811, "lon": -155.4375665799674, "alt_km": 507.3809721283478, "timestamp": "2025-12-17T10:52:54.006101+00:00", "meta": {"OBJECT_NAME": "YAOGAN-21", "OBJECT_ID": "2014-053A", "EPOCH": "2025-12-17T00:23:54.693600", "MEAN_MOTION": 15.23721081, "ECCENTRICITY": 0.00094349, "INCLINATION": 97.1754, "RA_OF_ASC_NODE": 34.1438, "ARG_OF_PERICENTER": 27.6414, "MEAN_ANOMALY": 332.5324, "EPHEMERIS_TYPE": 0, "CLASSIFICATION_TYPE": "U", "NORAD_CAT_ID": 40143, "ELEMENT_SET_NO": 999, "REV_AT_EPOCH": 62719, "BSTAR": 0.00015900485, "MEAN_MOTION_DOT": 3.756e-05, "MEAN_MOTION_DDOT": 0}, "tle": {"line1": "1 40143U 14053A   25351.01660525  .00003756  00000+0  15900-3 0  9994", "line2": "2 40143  97.1754  34.1438 0009434  27.6414 332.5324 15.23721081627191"}}, "geometry": {"type": "Point", "coordinates": [-155.4375665799674, -54.03712733584811]}}, {"type": "Feature", "properties": {"norad_id": 40275, "name": "YAOGAN-22", "group": "resource", "lat": 36.24010283573815, "lon": -37.0629378369351, "alt_km": 1199.4377905326883, "timestamp": "2025-12-17T10:52:54.006111+00:00", "meta": {"OBJECT_NAME": "YAOGAN-22", "OBJECT_ID": "2014-063A", "EPOCH": "2025-12-16T23:12:19.935360", "MEAN_MOTION": 13.15522819, "ECCENTRICITY": 0.00059831, "INCLINATION": 100.7423, "RA_OF_ASC_NODE": 134.4461, "ARG_OF_PERICENTER": 237.8836, "MEAN_ANOMALY": 122.1695, "EPHEMERIS_TYPE": 0, "CLASSIFICATION_TYPE": "U", "NORAD_CAT_ID": 40275, "ELEMENT_SET_NO": 999, "REV_AT_EPOCH": 53585, "BSTAR": 6.1520931e-05, "MEAN_MOTION_DOT": -2.3e-07, "MEAN_MOTION_DDOT": 0}, "tle": {"line1": "1 40275U 14063A   25350.96689740 -.00000023  00000+0  61521-4 0  9990", "line2": "2 40275 100.7423 134.4461 0005983 237.8836 122.1695 13.15522819535851"}}, "geometry": {"type": "Point", "coordinates": [-37.0629378369351, 36.24010283573815]}}, {"type": "Feature", "properties": {"norad_id": 40298, "name": "ASNARO", "group": "resource", "lat": -32.03105278103792, "lon": -117.35736319662999, "alt_km": 514.0952328125531, "timestamp": "2025-12-17T10:52:54.006122+00:00", "meta": {"OBJECT_NAME": "ASNARO", "OBJECT_ID": "2014-070A", "EPOCH": "2025-12-17T00:28:07.683168", "MEAN_MOTION": 15.19585159, "ECCENTRICITY": 0.00055841, "INCLINATION": 97.3653, "RA_OF_ASC_NODE": 66.8611, "ARG_OF_PERICENTER": 110.7499, "MEAN_ANOMALY": 249.4335, "EPHEMERIS_TYPE": 0, "CLASSIFICATION_TYPE": "U", "NORAD_CAT_ID": 40298, "ELEMENT_SET_NO": 999, "REV_AT_EPOCH": 61634, "BSTAR": 0.00039223147, "MEAN_MOTION_DOT": 8.286e-05, "MEAN_MOTION_DDOT": 0}, "tle": {"line1": "1 40298U 14070A   25351.01953337  .00008286  00000+0  39223-3 0  9997", "line2": "2 40298  97.3653  66.8611 0005584 110.7499 249.4335 15.19585159616348"}}, "geometry": {"type": "Point", "coordinates": [-117.35736319662999, -32.03105278103792]}}, {"type": "Feature", "properties": {"norad_id": 40310, "name": "YAOGAN-24", "group": "resource", "lat": 9.630220567266033, "lon": -56.04071926352219, "alt_km": 635.8308873659198, "timestamp": "2025-12-17T10:52:54.006133+00:00", "meta": {"OBJECT_NAME": "YAOGAN-24", "OBJECT_ID": "2014-072A", "EPOCH": "2025-12-16T22:43:37.108128", "MEAN_MOTION": 14.76187822, "ECCENTRICITY": 0.0014932, "INCLINATION": 98.1215, "RA_OF_ASC_NODE": 122.0619, "ARG_OF_PERICENTER": 125.2329, "MEAN_ANOMALY": 235.028, "EPHEMERIS_TYPE": 0, "CLASSIFICATION_TYPE": "U", "NORAD_CAT_ID": 40310, "ELEMENT_SET_NO": 999, "REV_AT_EPOCH": 59683, "BSTAR": 0.00017011248, "MEAN_MOTION_DOT": 1.125e-05, "MEAN_MOTION_DDOT": 0}, "tle": {"line1": "1 40310U 14072A   25350.94695727  .00001125  00000+0  17011-3 0  9997", "line2": "2 40310  98.1215 122.0619 0014932 125.2329 235.0280 14.76187822596837"}}, "geometry": {"type": "Point", "coordinates": [-56.04071926352219, 9.630220567266033]}}, {"type": "Feature", "properties": {"norad_id": 40336, "name": "CBERS 4", "group": "resource", "lat": -57.56745255286622, "lon": 62.64186246516996, "alt_km": 781.6108955044992, "timestamp": "2025-12-17T10:52:54.006157+00:00", "meta": {"OBJECT_NAME": "CBERS 4", "OBJECT_ID": "2014-079A", "EPOCH": "2025-12-16T23:26:38.974272", "MEAN_MOTION": 14.35519317, "ECCENTRICITY": 0.00017343, "INCLINATION": 98.3309, "RA_OF_ASC_NODE": 48.849, "ARG_OF_PERICENTER": 107.5336, "MEAN_ANOMALY": 252.604, "EPHEMERIS_TYPE": 0, "CLASSIFICATION_TYPE": "U", "NORAD_CAT_ID": 40336, "ELEMENT_SET_NO": 999, "REV_AT_EPOCH": 57781, "BSTAR": 5.7795626e-05, "MEAN_MOTION_DOT": 1.24e-06, "MEAN_MOTION_DDOT": 0}, "tle": {"line1": "1 40336U 14079A   25350.97683998  .00000124  00000+0  57796-4 0  9995", "line2": "2 40336  98.3309  48.8490 0001734 107.5336 252.6040 14.35519317577819"}}, "geometry": {"type": "Point", "coordinates": [62.64186246516996, -57.56745255286622]}}, {"type": "Feature", "properties": {"norad_id": 40362, "name": "YAOGAN-26", "group": "resource", "lat": -34.89894118905478, "lon": 166.9978491051981, "alt_km": 457.6612089924365, "timestamp": "2025-12-17T10:52:54.006170+00:00", "meta": {"OBJECT_NAME": "YAOGAN-26", "OBJECT_ID": "2014-088A", "EPOCH": "2025-12-16T23:01:48.040320", "MEAN_MOTION": 15.39450041, "ECCENTRICITY": 0.00056343, "INCLINATION": 97.0635, "RA_OF_ASC_NODE": 351.4837, "ARG_OF_PERICENTER": 17.0516, "MEAN_ANOMALY": 343.0919, "EPHEMERIS_TYPE": 0, "CLASSIFICATION_TYPE": "U", "NORAD_CAT_ID": 40362, "ELEMENT_SET_NO": 999, "REV_AT_EPOCH": 60959, "BSTAR": 0.00039742479, "MEAN_MOTION_DOT": 0.00015515, "MEAN_MOTION_DDOT": 0}, "tle": {"line1": "1 40362U 14088A   25350.95958380  .00015515  00000+0  39742-3 0  9992", "line2": "2 40362  97.0635 351.4837 0005634  17.0516 343.0919 15.39450041609596"}}, "geometry": {"type": "Point", "coordinates": [166.9978491051981, -34.89894118905478]}}, {"type": "Feature", "properties": {"norad_id": 40376, "name": "SMAP", "group": "resource", "lat": -73.75968557381204, "lon": 146.72397541609797, "alt_km": 690.5131738210548, "timestamp": "2025-12-17T10:52:54.006181+00:00", "meta": {"OBJECT_NAME": "SMAP", "OBJECT_ID": "2015-003A", "EPOCH": "2025-12-16T23:52:10.732224", "MEAN_MOTION": 14.63350573, "ECCENTRICITY": 0.00012117, "INCLINATION": 98.1289, "RA_OF_ASC_NODE": 355.6571, "ARG_OF_PERICENTER": 90.922, "MEAN_ANOMALY": 269.2121, "EPHEMERIS_TYPE": 0, "CLASSIFICATION_TYPE": "U", "NORAD_CAT_ID": 40376, "ELEMENT_SET_NO": 999, "REV_AT_EPOCH": 58097, "BSTAR": 0.00010711685, "MEAN_MOTION_DOT": 5.06e-06, "MEAN_MOTION_DDOT": 0}, "tle": {"line1": "1 40376U 15003A   25350.99456866  .00000506  00000+0  10712-3 0  9991", "line2": "2 40376  98.1289 355.6571 0001211  90.9220 269.2121 14.63350573580977"}}, "geometry": {"type": "Point", "coordinates": [146.72397541609797, -73.75968557381204]}}, {"type": "Feature", "properties": {"norad_id": 40536, "name": "KOMPSAT-3A", "group": "resource", "lat": -54.01460396758065, "lon": 135.35322660745322, "alt_km": 442.7555389584868, "timestamp": "2025-12-17T10:52:54.006192+00:00", "meta": {"OBJECT_NAME": "KOMPSAT-3A", "OBJECT_ID": "2015-014A", "EPOCH": "2025-12-16T22:58:54.302880", "MEAN_MOTION": 15.44099839, "ECCENTRICITY": 0.00052145, "INCLINATION": 97.6784, "RA_OF_ASC_NODE": 325.5375, "ARG_OF_PERICENTER": 117.4375, "MEAN_ANOMALY": 242.7403, "EPHEMERIS_TYPE": 0, "CLASSIFICATION_TYPE": "U", "NORAD_CAT_ID": 40536, "ELEMENT_SET_NO": 999, "REV_AT_EPOCH": 59360, "BSTAR": 0.00035553558, "MEAN_MOTION_DOT": 0.00016185, "MEAN_MOTION_DDOT": 0}, "tle": {"line1": "1 40536U 15014A   25350.95757295  .00016185  00000+0  35554-3 0  9998", "line2": "2 40536  97.6784 325.5375 0005214 117.4375 242.7403 15.44099839593608"}}, "geometry": {"type": "Point", "coordinates": [135.35322660745322, -54.01460396758065]}}, {"type": "Feature", "properties": {"norad_id": 40697, "name": "SENTINEL-2A", "group": "resource", "lat": -65.53614395245984, "lon": 83.27280551637108, "alt_km": 796.8871537864152, "timestamp": "2025-12-17T10:52:54.006202+00:00", "meta": {"OBJECT_NAME": "SENTINEL-2A", "OBJECT_ID": "2015-028A", "EPOCH": "2025-12-16T23:26:45.951936", "MEAN_MOTION": 14.30814712, "ECCENTRICITY": 0.00010532, "INCLINATION": 98.569, "RA_OF_ASC_NODE": 63.4489, "ARG_OF_PERICENTER": 87.6631, "MEAN_ANOMALY": 272.4672, "EPHEMERIS_TYPE": 0, "CLASSIFICATION_TYPE": "U", "NORAD_CAT_ID": 40697, "ELEMENT_SET_NO": 999, "REV_AT_EPOCH": 54767, "BSTAR": 4.8671132e-05, "MEAN_MOTION_DOT": 8.4e-07, "MEAN_MOTION_DDOT": 0}, "tle": {"line1": "1 40697U 15028A   25350.97692074  .00000084  00000+0  48671-4 0  9992", "line2": "2 40697  98.5690  63.4489 0001053  87.6631 272.4672 14.30814712547679"}}, "geometry": {"type": "Point", "coordinates": [83.27280551637108, -65.53614395245984]}}]}